{"type": "FeatureCollection", "features": [ {"type": "Feature", "properties": {"norad_id": 32289, "name": "YAOGAN-3", "group": "resource", "lat": 31.761910663453076, "lon": -155.25054577339858, "alt_km": 596.2942382334695, "timestamp": "2025-12-19T06:59:43.560635+00:00", "meta": {"OBJECT_NAME": "YAOGAN-3", "OBJECT_ID": "2007-055A", "EPOCH": "2025-12-18T23:53:12.903072", "MEAN_MOTION": 14.89887164, "ECCENTRICITY": 0.00012592, "INCLINATION": 97.8363, "RA_OF_ASC_NODE": 19.5647, "ARG_OF_PERICENTER": 73.0574, "MEAN_ANOMALY": 287.0781, "EPHEMERIS_TYPE": 0, "CLASSIFICATION_TYPE": "U", "NORAD_CAT_ID": 32289, "ELEMENT_SET_NO": 999, "REV_AT_EPOCH": 97902, "BSTAR": 0.00015253105, "MEAN_MOTION_DOT": 1.411e-05, "MEAN_MOTION_DDOT": 0}, "tle": {"line1": "1 32289U 07055A   25352.99528823  .00001411  00000+0  15253-3 0  9999", "line2": "2 32289  97.8363  19.5647 0001259  73.0574 287.0781 14.89887164979023"}}, "geometry": {"type": "Point", "coordinates": [-155.25054577339858, 31.761910663453076]}}, {"type": "Feature", "properties": {"norad_id": 32376, "name": "COSMO-SKYMED 2", "group": "resource", "lat": -63.91673647649605, "lon": -21.91879883357742, "alt_km": 630.6646445686847, "timestamp": "2025-12-19T06:59:43.560647+00:00", "meta": {"OBJECT_NAME": "COSMO-SKYMED 2", "OBJECT_ID": "2007-059A", "EPOCH": "2025-12-18T23:24:44.476992", "MEAN_MOTION": 14.82150018, "ECCENTRICITY": 0.0001352, "INCLINATION": 97.8803, "RA_OF_ASC_NODE": 174.2054, "ARG_OF_PERICENTER": 82.9504, "MEAN_ANOMALY": 277.1863, "EPHEMERIS_TYPE": 0, "CLASSIFICATION_TYPE": "U", "NORAD_CAT_ID": 32376, "ELEMENT_SET_NO": 999, "REV_AT_EPOCH": 97530, "BSTAR": 5.9164534e-05, "MEAN_MOTION_DOT": 4.19e-06, "MEAN_MOTION_DDOT": 0}, "tle": {"line1": "1 32376U 07059A   25352.97551478  .00000419  00000+0  59165-4 0  9998", "line2": "2 32376  97.8803 174.2054 0001352  82.9504 277.1863 14.82150018975308"}}, "geometry": {"type": "Point", "coordinates": [-21.91879883357742, -63.91673647649605]}}, {"type": "Feature", "properties": {"norad_id": 32382, "name": "RADARSAT-2", "group": "resource", "lat": 44.76085896558473, "lon": -10.823246407442275, "alt_km": 787.3146617899574, "timestamp": "2025-12-19T06:59:43.560657+00:00", "meta": {"OBJECT_NAME": "RADARSAT-2", "OBJECT_ID": "2007-061A", "EPOCH": "2025-12-19T00:03:59.869728", "MEAN_MOTION": 14.29983242, "ECCENTRICITY": 0.00010953, "INCLINATION": 98.5792, "RA_OF_ASC_NODE": 357.5022, "ARG_OF_PERICENTER": 84.6259, "MEAN_ANOMALY": 275.5048, "EPHEMERIS_TYPE": 0, "CLASSIFICATION_TYPE": "U", "NORAD_CAT_ID": 32382, "ELEMENT_SET_NO": 999, "REV_AT_EPOCH": 94020, "BSTAR": 1.7519656e-05, "MEAN_MOTION_DOT": 2e-08, "MEAN_MOTION_DDOT": 0}, "tle": {"line1": "1 32382U 07061A   25353.00277627  .00000002  00000+0  17520-4 0  9991", "line2": "2 32382  98.5792 357.5022 0001095  84.6259 275.5048 14.29983242940203"}}, "geometry": {"type": "Point", "coordinates": [-10.823246407442275, 44.76085896558473]}}, {"type": "Feature", "properties": {"norad_id": 32783, "name": "CARTOSAT-2A", "group": "resource", "lat": -50.45631706402242, "lon": 52.45838983266312, "alt_km": 632.9847709473352, "timestamp": "2025-12-19T06:59:43.560668+00:00", "meta": {"OBJECT_NAME": "CARTOSAT-2A", "OBJECT_ID": "2008-021A", "EPOCH": "2025-12-18T23:06:24.509088", "MEAN_MOTION": 14.78947064, "ECCENTRICITY": 0.00113958, "INCLINATION": 97.7927, "RA_OF_ASC_NODE": 42.5922, "ARG_OF_PERICENTER": 344.4702, "MEAN_ANOMALY": 15.6159, "EPHEMERIS_TYPE": 0, "CLASSIFICATION_TYPE": "U", "NORAD_CAT_ID": 32783, "ELEMENT_SET_NO": 999, "REV_AT_EPOCH": 95216, "BSTAR": 7.6600661e-05, "MEAN_MOTION_DOT": 5.15e-06, "MEAN_MOTION_DDOT": 0}, "tle": {"line1": "1 32783U 08021A   25352.96278367  .00000515  00000+0  76601-4 0  9993", "line2": "2 32783  97.7927  42.5922 0011395 344.4702  15.6159 14.78947064952163"}}, "geometry": {"type": "Point", "coordinates": [52.45838983266312, -50.45631706402242]}}, {"type": "Feature", "properties": {"norad_id": 33320, "name": "HUANJING 1A (HJ-1A)", "group": "resource", "lat": -78.04846076615918, "lon": 20.756643725127745, "alt_km": 626.9453516137401, "timestamp": "2025-12-19T06:59:43.560679+00:00", "meta": {"OBJECT_NAME": "HUANJING 1A (HJ-1A)", "OBJECT_ID": "2008-041A", "EPOCH": "2025-12-18T23:15:50.508576", "MEAN_MOTION": 14.83412048, "ECCENTRICITY": 0.00197139, "INCLINATION": 97.6535, "RA_OF_ASC_NODE": 341.0078, "ARG_OF_PERICENTER": 14.6493, "MEAN_ANOMALY": 345.5289, "EPHEMERIS_TYPE": 0, "CLASSIFICATION_TYPE": "U", "NORAD_CAT_ID": 33320, "ELEMENT_SET_NO": 999, "REV_AT_EPOCH": 93168, "BSTAR": 8.9649061e-05, "MEAN_MOTION_DOT": 6.87e-06, "MEAN_MOTION_DDOT": 0}, "tle": {"line1": "1 33320U 08041A   25352.96933459  .00000687  00000+0  89649-4 0  9999", "line2": "2 33320  97.6535 341.0078 0019713  14.6493 345.5289 14.83412048931687"}}, "geometry": {"type": "Point", "coordinates": [20.756643725127745, -78.04846076615918]}}, {"type": "Feature", "properties": {"norad_id": 33321, "name": "HUANJING 1B (HJ-1B)", "group": "resource", "lat": 51.862850763995176, "lon": 174.83945031465072, "alt_km": 607.4906214857001, "timestamp": "2025-12-19T06:59:43.560690+00:00", "meta": {"OBJECT_NAME": "HUANJING 1B (HJ-1B)", "OBJECT_ID": "2008-041B", "EPOCH": "2025-12-18T23:56:53.642976", "MEAN_MOTION": 14.82836241, "ECCENTRICITY": 0.00380512, "INCLINATION": 97.6395, "RA_OF_ASC_NODE": 344.7158, "ARG_OF_PERICENTER": 55.867, "MEAN_ANOMALY": 304.6144, "EPHEMERIS_TYPE": 0, "CLASSIFICATION_TYPE": "U", "NORAD_CAT_ID": 33321, "ELEMENT_SET_NO": 999, "REV_AT_EPOCH": 93170, "BSTAR": 0.00011338759, "MEAN_MOTION_DOT": 8.78e-06, "MEAN_MOTION_DDOT": 0}, "tle": {"line1": "1 33321U 08041B   25352.99784309  .00000878  00000+0  11339-3 0  9993", "line2": "2 33321  97.6395 344.7158 0038051  55.8670 304.6144 14.82836241931704"}}, "geometry": {"type": "Point", "coordinates": [174.83945031465072, 51.862850763995176]}}, {"type": "Feature", "properties": {"norad_id": 33331, "name": "GEOEYE 1", "group": "resource", "lat": 46.785204481724776, "lon": 55.74413462149369, "alt_km": 675.6072307456498, "timestamp": "2025-12-19T06:59:43.560701+00:00", "meta": {"OBJECT_NAME": "GEOEYE 1", "OBJECT_ID": "2008-042A", "EPOCH": "2025-12-18T20:56:32.932032", "MEAN_MOTION": 14.64708427, "ECCENTRICITY": 0.0002787, "INCLINATION": 98.1247, "RA_OF_ASC_NODE": 64.0762, "ARG_OF_PERICENTER": 258.403, "MEAN_ANOMALY": 101.686, "EPHEMERIS_TYPE": 0, "CLASSIFICATION_TYPE": "U", "NORAD_CAT_ID": 33331, "ELEMENT_SET_NO": 999, "REV_AT_EPOCH": 92375, "BSTAR": 9.6515281e-05, "MEAN_MOTION_DOT": 4.66e-06, "MEAN_MOTION_DDOT": 0}, "tle": {"line1": "1 33331U 08042A   25352.87260338  .00000466  00000+0  96515-4 0  9996", "line2": "2 33331  98.1247  64.0762 0002787 258.4030 101.6860 14.64708427923758"}}, "geometry": {"type": "Point", "coordinates": [55.74413462149369, 46.785204481724776]}}, {"type": "Feature", "properties": {"norad_id": 33396, "name": "THEOS", "group": "resource", "lat": -65.68806843673345, "lon": 70.72689197711291, "alt_km": 833.0301916775179, "timestamp": "2025-12-19T06:59:43.560711+00:00", "meta": {"OBJECT_NAME": "THEOS", "OBJECT_ID": "2008-049A", "EPOCH": "2025-12-18T22:51:23.002848", "MEAN_MOTION": 14.20096317, "ECCENTRICITY": 0.00011822, "INCLINATION": 98.5865, "RA_OF_ASC_NODE": 50.8591, "ARG_OF_PERICENTER": 93.4955, "MEAN_ANOMALY": 266.6357, "EPHEMERIS_TYPE": 0, "CLASSIFICATION_TYPE": "U", "NORAD_CAT_ID": 33396, "ELEMENT_SET_NO": 999, "REV_AT_EPOCH": 89238, "BSTAR": -7.1479828e-05, "MEAN_MOTION_DOT": -1.95e-06, "MEAN_MOTION_DDOT": 0}, "tle": {"line1": "1 33396U 08049A   25352.95234957 -.00000195  00000+0 -71480-4 0  9996", "line2": "2 33396  98.5865  50.8591 0001182  93.4955 266.6357 14.20096317892380"}}, "geometry": {"type": "Point", "coordinates": [70.72689197711291, -65.68806843673345]}}, {"type": "Feature", "properties": {"norad_id": 33412, "name": "COSMO-SKYMED 3", "group": "resource", "lat": -48.42253498377458, "lon": 14.850010532814952, "alt_km": 554.8476404091016, "timestamp": "2025-12-19T06:59:43.560722+00:00", "meta": {"OBJECT_NAME": "COSMO-SKYMED 3", "OBJECT_ID": "2008-054A", "EPOCH": "2025-12-18T22:00:23.376672", "MEAN_MOTION": 15.05414172, "ECCENTRICITY": 0.00167347, "INCLINATION": 97.8473, "RA_OF_ASC_NODE": 203.413, "ARG_OF_PERICENTER": 151.3429, "MEAN_ANOMALY": 208.872, "EPHEMERIS_TYPE": 0, "CLASSIFICATION_TYPE": "U", "NORAD_CAT_ID": 33412, "ELEMENT_SET_NO": 999, "REV_AT_EPOCH": 92980, "BSTAR": 0.00032291329, "MEAN_MOTION_DOT": 4.582e-05, "MEAN_MOTION_DDOT": 0}, "tle": {"line1": "1 33412U 08054A   25352.91693723  .00004582  00000+0  32291-3 0  9995", "line2": "2 33412  97.8473 203.4130 0016734 151.3429 208.8720 15.05414172929807"}}, "geometry": {"type": "Point", "coordinates": [14.850010532814952, -48.42253498377458]}}, {"type": "Feature", "properties": {"norad_id": 33446, "name": "YAOGAN-4", "group": "resource", "lat": 35.206180580068974, "lon": -82.30973629470152, "alt_km": 619.3092462543718, "timestamp": "2025-12-19T06:59:43.560733+00:00", "meta": {"OBJECT_NAME": "YAOGAN-4", "OBJECT_ID": "2008-061A", "EPOCH": "2025-12-18T19:29:52.486656", "MEAN_MOTION": 14.82699473, "ECCENTRICITY": 0.00132112, "INCLINATION": 97.9189, "RA_OF_ASC_NODE": 282.8521, "ARG_OF_PERICENTER": 302.0328, "MEAN_ANOMALY": 57.9601, "EPHEMERIS_TYPE": 0, "CLASSIFICATION_TYPE": "U", "NORAD_CAT_ID": 33446, "ELEMENT_SET_NO": 999, "REV_AT_EPOCH": 91893, "BSTAR": 0.00013226403, "MEAN_MOTION_DOT": 1.015e-05, "MEAN_MOTION_DDOT": 0}, "tle": {"line1": "1 33446U 08061A   25352.81241304  .00001015  00000+0  13226-3 0  9998", "line2": "2 33446  97.9189 282.8521 0013211 302.0328  57.9601 14.82699473918930"}}, "geometry": {"type": "Point", "coordinates": [-82.30973629470152, 35.206180580068974]}}]}